[
    {
        "Altitude(m)": 557914.1374026234,
        "Argument of Periapsis(deg)": 0.006622991110713501,
        "Eccentricity": 0.0,
        "Inclination(deg)": 53.0,
        "Latitude(deg)": 44.449882660325834,
        "Longitude(deg)": -138.4507512426797,
        "Mean Anomaly(deg)": 61.00069286757756,
        "RAAN(deg)": 274.990143368528,
        "Satellite Name": "Starlink Shell 1 1213",
        "Satellite Number": 1213,
        "Semi-Major Axis(m)": 6931778.249405717,
        "Time(s)": 190
    },
    {
        "Altitude(m)": 557990.0276612142,
        "Argument of Periapsis(deg)": 0.0069715695902247375,
        "Eccentricity": 0.0,
        "Inclination(deg)": 53.0,
        "Latitude(deg)": 44.78746487608253,
        "Longitude(deg)": -137.75117785362133,
        "Mean Anomaly(deg)": 61.62752407113431,
        "RAAN(deg)": 274.9896245984506,
        "Satellite Name": "Starlink Shell 1 1213",
        "Satellite Number": 1213,
        "Semi-Major Axis(m)": 6931778.249405717,
        "Time(s)": 200
    },
    {
        "Altitude(m)": 558065.0160146242,
        "Argument of Periapsis(deg)": 0.007320148069735974,
        "Eccentricity": 0.0,
        "Inclination(deg)": 53.0,
        "Latitude(deg)": 45.12016628887093,
        "Longitude(deg)": -137.0429888353516,
        "Mean Anomaly(deg)": 62.25435527469101,
        "RAAN(deg)": 274.98910582837306,
        "Satellite Name": "Starlink Shell 1 1213",
        "Satellite Number": 1213,
        "Semi-Major Axis(m)": 6931778.249405717,
        "Time(s)": 210
    },
    {
        "Altitude(m)": 558139.0555967217,
        "Argument of Periapsis(deg)": 0.007668726549247212,
        "Eccentricity": 0.0,
        "Inclination(deg)": 53.0,
        "Latitude(deg)": 45.447874105793666,
        "Longitude(deg)": -136.3261120275128,
        "Mean Anomaly(deg)": 62.881186478247706,
        "RAAN(deg)": 274.98858705829554,
        "Satellite Name": "Starlink Shell 1 1213",
        "Satellite Number": 1213,
        "Semi-Major Axis(m)": 6931778.249405717,
        "Time(s)": 220
    },
    {
        "Altitude(m)": 558212.1002303733,
        "Argument of Periapsis(deg)": 0.00801730502875845,
        "Eccentricity": 0.0,
        "Inclination(deg)": 53.0,
        "Latitude(deg)": 45.77047398227366,
        "Longitude(deg)": -135.60048156409343,
        "Mean Anomaly(deg)": 63.50801768180446,
        "RAAN(deg)": 274.98806828821813,
        "Satellite Name": "Starlink Shell 1 1213",
        "Satellite Number": 1213,
        "Semi-Major Axis(m)": 6931778.249405717,
        "Time(s)": 230
    },
    {
        "Altitude(m)": 558284.1044504672,
        "Argument of Periapsis(deg)": 0.008365883508269684,
        "Eccentricity": 0.0,
        "Inclination(deg)": 53.0,
        "Latitude(deg)": 46.08785009249017,
        "Longitude(deg)": -134.86603786762558,
        "Mean Anomaly(deg)": 64.13484888536115,
        "RAAN(deg)": 274.98754951814067,
        "Satellite Name": "Starlink Shell 1 1213",
        "Satellite Number": 1213,
        "Semi-Major Axis(m)": 6931778.249405717,
        "Time(s)": 240
    },
    {
        "Altitude(m)": 558355.0235265606,
        "Argument of Periapsis(deg)": 0.008714461987780921,
        "Eccentricity": 0.0,
        "Inclination(deg)": 53.0,
        "Latitude(deg)": 46.399885208679386,
        "Longitude(deg)": -134.12272917057516,
        "Mean Anomaly(deg)": 64.76168008891784,
        "RAAN(deg)": 274.98703074806315,
        "Satellite Name": "Starlink Shell 1 1213",
        "Satellite Number": 1213,
        "Semi-Major Axis(m)": 6931778.249405717,
        "Time(s)": 250
    },
    {
        "Altitude(m)": 558424.8134851097,
        "Argument of Periapsis(deg)": 0.009063040467292158,
        "Eccentricity": 0.0,
        "Inclination(deg)": 53.0,
        "Latitude(deg)": 46.70646078969348,
        "Longitude(deg)": -133.37051153673806,
        "Mean Anomaly(deg)": 65.38851129247459,
        "RAAN(deg)": 274.98651197798574,
        "Satellite Name": "Starlink Shell 1 1213",
        "Satellite Number": 1213,
        "Semi-Major Axis(m)": 6931778.249405717,
        "Time(s)": 260
    },
    {
        "Altitude(m)": 558493.4311313669,
        "Argument of Periapsis(deg)": 0.009411618946803396,
        "Eccentricity": 0.0,
        "Inclination(deg)": 53.0,
        "Latitude(deg)": 47.00745707919929,
        "Longitude(deg)": -132.60934889381895,
        "Mean Anomaly(deg)": 66.0153424960313,
        "RAAN(deg)": 274.9859932079082,
        "Satellite Name": "Starlink Shell 1 1213",
        "Satellite Number": 1213,
        "Semi-Major Axis(m)": 6931778.249405717,
        "Time(s)": 270
    },
    {
        "Altitude(m)": 558560.8340707951,
        "Argument of Periapsis(deg)": 0.009760197426314633,
        "Eccentricity": 0.0,
        "Inclination(deg)": 53.0,
        "Latitude(deg)": 47.302753213874205,
        "Longitude(deg)": -131.83921458810116,
        "Mean Anomaly(deg)": 66.64217369958804,
        "RAAN(deg)": 274.98547443783076,
        "Satellite Name": "Starlink Shell 1 1213",
        "Satellite Number": 1213,
        "Semi-Major Axis(m)": 6931778.249405717,
        "Time(s)": 280
    },
    {
        "Altitude(m)": 558626.9807301175,
        "Argument of Periapsis(deg)": 0.01010877590582587,
        "Eccentricity": 0.0,
        "Inclination(deg)": 53.0,
        "Latitude(deg)": 47.592227341918445,
        "Longitude(deg)": -131.06009143322865,
        "Mean Anomaly(deg)": 67.26900490314472,
        "RAAN(deg)": 274.9849556677533,
        "Satellite Name": "Starlink Shell 1 1213",
        "Satellite Number": 1213,
        "Semi-Major Axis(m)": 6931778.249405717,
        "Time(s)": 290
    },
    {
        "Altitude(m)": 558691.8303779161,
        "Argument of Periapsis(deg)": 0.010457354385337106,
        "Eccentricity": 0.0,
        "Inclination(deg)": 53.0,
        "Latitude(deg)": 47.875756752174965,
        "Longitude(deg)": -130.2719717634483,
        "Mean Anomaly(deg)": 67.89583610670142,
        "RAAN(deg)": 274.9844368976758,
        "Satellite Name": "Starlink Shell 1 1213",
        "Satellite Number": 1213,
        "Semi-Major Axis(m)": 6931778.249405717,
        "Time(s)": 300
    },
    {
        "Altitude(m)": 558755.3431447975,
        "Argument of Periapsis(deg)": 0.010805932864848343,
        "Eccentricity": 0.0,
        "Inclination(deg)": 53.0,
        "Latitude(deg)": 48.15321801410217,
        "Longitude(deg)": -129.47485900136357,
        "Mean Anomaly(deg)": 68.52266731025817,
        "RAAN(deg)": 274.9839181275983,
        "Satellite Name": "Starlink Shell 1 1213",
        "Satellite Number": 1213,
        "Semi-Major Axis(m)": 6931778.249405717,
        "Time(s)": 310
    },
    {
        "Altitude(m)": 558817.4800431181,
        "Argument of Periapsis(deg)": 0.01115451134435958,
        "Eccentricity": 0.0,
        "Inclination(deg)": 53.0,
        "Latitude(deg)": 48.424487128790176,
        "Longitude(deg)": -128.66876771134585,
        "Mean Anomaly(deg)": 69.14949851381488,
        "RAAN(deg)": 274.9833993575209,
        "Satellite Name": "Starlink Shell 1 1213",
        "Satellite Number": 1213,
        "Semi-Major Axis(m)": 6931778.249405717,
        "Time(s)": 320
    },
    {
        "Altitude(m)": 558878.2029862654,
        "Argument of Periapsis(deg)": 0.011503089823870818,
        "Eccentricity": 0.0,
        "Inclination(deg)": 53.0,
        "Latitude(deg)": 48.68943969115896,
        "Longitude(deg)": -127.85372364806277,
        "Mean Anomaly(deg)": 69.77632971737162,
        "RAAN(deg)": 274.9828805874434,
        "Satellite Name": "Starlink Shell 1 1213",
        "Satellite Number": 1213,
        "Semi-Major Axis(m)": 6931778.249405717,
        "Time(s)": 330
    },
    {
        "Altitude(m)": 558937.4748074423,
        "Argument of Periapsis(deg)": 0.011851668303382053,
        "Eccentricity": 0.0,
        "Inclination(deg)": 53.0,
        "Latitude(deg)": 48.947951063412035,
        "Longitude(deg)": -127.02976530928903,
        "Mean Anomaly(deg)": 70.40316092092826,
        "RAAN(deg)": 274.98236181736587,
        "Satellite Name": "Starlink Shell 1 1213",
        "Satellite Number": 1213,
        "Semi-Major Axis(m)": 6931778.249405717,
        "Time(s)": 340
    },
    {
        "Altitude(m)": 558995.2592780346,
        "Argument of Periapsis(deg)": 0.012200246782893292,
        "Eccentricity": 0.0,
        "Inclination(deg)": 53.0,
        "Latitude(deg)": 49.19989655974071,
        "Longitude(deg)": -126.19694396327152,
        "Mean Anomaly(deg)": 71.029992124485,
        "RAAN(deg)": 274.98184304728846,
        "Satellite Name": "Starlink Shell 1 1213",
        "Satellite Number": 1213,
        "Semi-Major Axis(m)": 6931778.249405717,
        "Time(s)": 350
    },
    {
        "Altitude(m)": 559051.5211254633,
        "Argument of Periapsis(deg)": 0.012548825262404526,
        "Eccentricity": 0.0,
        "Inclination(deg)": 53.0,
        "Latitude(deg)": 49.445151642200074,
        "Longitude(deg)": -125.35532365926291,
        "Mean Anomaly(deg)": 71.65682332804175,
        "RAAN(deg)": 274.981324277211,
        "Satellite Name": "Starlink Shell 1 1213",
        "Satellite Number": 1213,
        "Semi-Major Axis(m)": 6931778.249405717,
        "Time(s)": 360
    },
    {
        "Altitude(m)": 559106.2260505523,
        "Argument of Periapsis(deg)": 0.012897403741915765,
        "Eccentricity": 0.0,
        "Inclination(deg)": 53.0,
        "Latitude(deg)": 49.68359212759111,
        "Longitude(deg)": -124.50498272958573,
        "Mean Anomaly(deg)": 72.28365453159844,
        "RAAN(deg)": 274.9808055071335,
        "Satellite Name": "Starlink Shell 1 1213",
        "Satellite Number": 1213,
        "Semi-Major Axis(m)": 6931778.249405717,
        "Time(s)": 370
    }
]